[{"OBJECT_NAME":"COSMOS 2407","OBJECT_ID":"2004-028A","EPOCH":"2026-03-09T18:32:11.166144","MEAN_MOTION":13.76325057,"ECCENTRICITY":0.00396651,"INCLINATION":82.9633,"RA_OF_ASC_NODE":148.4649,"ARG_OF_PERICENTER":168.53,"MEAN_ANOMALY":311.3754,"EPHEMERIS_TYPE":0,"CLASSIFICATION_TYPE":"U","NORAD_CAT_ID":28380,"ELEMENT_SET_NO":999,"REV_AT_EPOCH":8620,"BSTAR":5.9261217e-5,"MEAN_MOTION_DOT":7.4e-7,"MEAN_MOTION_DDOT":0},{"OBJECT_NAME":"THORAD AGENA D DEB","OBJECT_ID":"1970-025NB","EPOCH":"2026-03-09T22:51:14.609952","MEAN_MOTION":13.69004591,"ECCENTRICITY":0.00315828,"INCLINATION":100.1265,"RA_OF_ASC_NODE":83.6093,"ARG_OF_PERICENTER":215.6094,"MEAN_ANOMALY":206.1416,"EPHEMERIS_TYPE":0,"CLASSIFICATION_TYPE":"U","NORAD_CAT_ID":6167,"ELEMENT_SET_NO":999,"REV_AT_EPOCH":78178,"BSTAR":0.00058857613,"MEAN_MOTION_DOT":4.61e-6,"MEAN_MOTION_DDOT":0}]
